{
  "type": "FeatureCollection",
  "features": [
    {
      "type": "Feature",
      "properties": {
        "norad_id": 67075,
        "name": "STARLINK-36230",
        "group": "last-30-days",
        "lat": -32.249295533289455,
        "lon": -152.35992550943612,
        "alt_km": 309.9188616074016,
        "timestamp": "2025-12-22T23:36:19.414034+00:00",
        "meta_object_name": "STARLINK-36230",
        "meta_object_id": "2025-298A",
        "meta_epoch": "2025-12-22T14:00:01.999872",
        "meta_mean_motion": 15.88526042,
        "meta_eccentricity": 0.00044873,
        "meta_inclination": 69.9974,
        "meta_ra_of_asc_node": 222.0841,
        "meta_arg_of_pericenter": 269.9413,
        "meta_mean_anomaly": 287.4863,
        "meta_ephemeris_type": 0,
        "meta_classification_type": "U",
        "meta_norad_cat_id": 67075,
        "meta_element_set_no": 999,
        "meta_rev_at_epoch": 256,
        "meta_bstar": 0.00064651343,
        "meta_mean_motion_dot": 0.00183892,
        "meta_mean_motion_ddot": 0,
        "tle_line1": "1 67075U 25298A   25356.58335648  .00183892  00000+0  64651-3 0  9999",
        "tle_line2": "2 67075  69.9974 222.0841 0004487 269.9413 287.4863 15.88526042  2569"
      },
      "geometry": {
        "type": "Point",
        "coordinates": [
          -152.35992550943612,
          -32.249295533289455
        ]
      }
    },
    {
      "type": "Feature",
      "properties": {
        "norad_id": 67076,
        "name": "STARLINK-36240",
        "group": "last-30-days",
        "lat": -30.49517512967376,
        "lon": -151.46300314991177,
        "alt_km": 309.9261117760607,
        "timestamp": "2025-12-22T23:36:19.414046+00:00",
        "meta_object_name": "STARLINK-36240",
        "meta_object_id": "2025-298B",
        "meta_epoch": "2025-12-22T14:00:01.999872",
        "meta_mean_motion": 15.88580237,
        "meta_eccentricity": 0.00045373,
        "meta_inclination": 69.9974,
        "meta_ra_of_asc_node": 222.0819,
        "meta_arg_of_pericenter": 265.6221,
        "meta_mean_anomaly": 293.6411,
        "meta_ephemeris_type": 0,
        "meta_classification_type": "U",
        "meta_norad_cat_id": 67076,
        "meta_element_set_no": 999,
        "meta_rev_at_epoch": 256,
        "meta_bstar": 0.00064381259,
        "meta_mean_motion_dot": 0.00183613,
        "meta_mean_motion_ddot": 0,
        "tle_line1": "1 67076U 25298B   25356.58335648  .00183613  00000+0  64381-3 0  9991",
        "tle_line2": "2 67076  69.9974 222.0819 0004537 265.6221 293.6411 15.88580237  2565"
      },
      "geometry": {
        "type": "Point",
        "coordinates": [
          -151.46300314991177,
          -30.49517512967376
        ]
      }
    },
    {
      "type": "Feature",
      "properties": {
        "norad_id": 67077,
        "name": "STARLINK-36243",
        "group": "last-30-days",
        "lat": -28.391051315053957,
        "lon": -150.43243500648092,
        "alt_km": 309.6221805820669,
        "timestamp": "2025-12-22T23:36:19.414056+00:00",
        "meta_object_name": "STARLINK-36243",
        "meta_object_id": "2025-298C",
        "meta_epoch": "2025-12-22T14:00:01.999872",
        "meta_mean_motion": 15.88642171,
        "meta_eccentricity": 0.00045723,
        "meta_inclination": 69.9971,
        "meta_ra_of_asc_node": 222.0797,
        "meta_arg_of_pericenter": 267.9429,
        "meta_mean_anomaly": 293.5257,
        "meta_ephemeris_type": 0,
        "meta_classification_type": "U",
        "meta_norad_cat_id": 67077,
        "meta_element_set_no": 999,
        "meta_rev_at_epoch": 256,
        "meta_bstar": 0.0006149438,
        "meta_mean_motion_dot": 0.00175756,
        "meta_mean_motion_ddot": 0,
        "tle_line1": "1 67077U 25298C   25356.58335648  .00175756  00000+0  61494-3 0  9993",
        "tle_line2": "2 67077  69.9971 222.0797 0004572 267.9429 293.5257 15.88642171  2565"
      },
      "geometry": {
        "type": "Point",
        "coordinates": [
          -150.43243500648092,
          -28.391051315053957
        ]
      }
    },
    {
      "type": "Feature",
      "properties": {
        "norad_id": 67078,
        "name": "STARLINK-36236",
        "group": "last-30-days",
        "lat": -26.773821565680144,
        "lon": -149.67089062281715,
        "alt_km": 309.3635283557469,
        "timestamp": "2025-12-22T23:36:19.414068+00:00",
        "meta_object_name": "STARLINK-36236",
        "meta_object_id": "2025-298D",
        "meta_epoch": "2025-12-22T14:00:01.999872",
        "meta_mean_motion": 15.8868621,
        "meta_eccentricity": 0.00046938,
        "meta_inclination": 69.9973,
        "meta_ra_of_asc_node": 222.0772,
        "meta_arg_of_pericenter": 269.1154,
        "meta_mean_anomaly": 294.0392,
        "meta_ephemeris_type": 0,
        "meta_classification_type": "U",
        "meta_norad_cat_id": 67078,
        "meta_element_set_no": 999,
        "meta_rev_at_epoch": 256,
        "meta_bstar": 0.00063846494,
        "meta_mean_motion_dot": 0.00183045,
        "meta_mean_motion_ddot": 0,
        "tle_line1": "1 67078U 25298D   25356.58335648  .00183045  00000+0  63846-3 0  9997",
        "tle_line2": "2 67078  69.9973 222.0772 0004693 269.1154 294.0392 15.88686210  2562"
      },
      "geometry": {
        "type": "Point",
        "coordinates": [
          -149.67089062281715,
          -26.773821565680144
        ]
      }
    },
    {
      "type": "Feature",
      "properties": {
        "norad_id": 67079,
        "name": "STARLINK-36159",
        "group": "last-30-days",
        "lat": -24.640819180933903,
        "lon": -148.70095096959682,
        "alt_km": 309.2068238103666,
        "timestamp": "2025-12-22T23:36:19.414078+00:00",
        "meta_object_name": "STARLINK-36159",
        "meta_object_id": "2025-298E",
        "meta_epoch": "2025-12-22T14:00:01.999872",
        "meta_mean_motion": 15.88741311,
        "meta_eccentricity": 0.00045947,
        "meta_inclination": 69.9975,
        "meta_ra_of_asc_node": 222.0747,
        "meta_arg_of_pericenter": 268.9289,
        "meta_mean_anomaly": 296.4549,
        "meta_ephemeris_type": 0,
        "meta_classification_type": "U",
        "meta_norad_cat_id": 67079,
        "meta_element_set_no": 999,
        "meta_rev_at_epoch": 256,
        "meta_bstar": 0.00063302796,
        "meta_mean_motion_dot": 0.00181954,
        "meta_mean_motion_ddot": 0,
        "tle_line1": "1 67079U 25298E   25356.58335648  .00181954  00000+0  63303-3 0  9993",
        "tle_line2": "2 67079  69.9975 222.0747 0004594 268.9289 296.4549 15.88741311  2567"
      },
      "geometry": {
        "type": "Point",
        "coordinates": [
          -148.70095096959682,
          -24.640819180933903
        ]
      }
    },
    {
      "type": "Feature",
      "properties": {
        "norad_id": 67080,
        "name": "STARLINK-36158",
        "group": "last-30-days",
        "lat": -22.623395361323205,
        "lon": -147.81647927499478,
        "alt_km": 308.99994396876536,
        "timestamp": "2025-12-22T23:36:19.414087+00:00",
        "meta_object_name": "STARLINK-36158",
        "meta_object_id": "2025-298F",
        "meta_epoch": "2025-12-22T14:00:01.999872",
        "meta_mean_motion": 15.88736956,
        "meta_eccentricity": 0.00042719,
        "meta_inclination": 69.9973,
        "meta_ra_of_asc_node": 222.0722,
        "meta_arg_of_pericenter": 269.9328,
        "meta_mean_anomaly": 297.5836,
        "meta_ephemeris_type": 0,
        "meta_classification_type": "U",
        "meta_norad_cat_id": 67080,
        "meta_element_set_no": 999,
        "meta_rev_at_epoch": 250,
        "meta_bstar": 0.00095807391,
        "meta_mean_motion_dot": 0.00278416,
        "meta_mean_motion_ddot": 0,
        "tle_line1": "1 67080U 25298F   25356.58335648  .00278416  00000+0  95807-3 0  9999",
        "tle_line2": "2 67080  69.9973 222.0722 0004271 269.9328 297.5836 15.88736956  2501"
      },
      "geometry": {
        "type": "Point",
        "coordinates": [
          -147.81647927499478,
          -22.623395361323205
        ]
      }
    },
    {
      "type": "Feature",
      "properties": {
        "norad_id": 67081,
        "name": "STARLINK-35864",
        "group": "last-30-days",
        "lat": -20.804039003877136,
        "lon": -147.04249396281793,
        "alt_km": 308.76755306559426,
        "timestamp": "2025-12-22T23:36:19.414097+00:00",
        "meta_object_name": "STARLINK-35864",
        "meta_object_id": "2025-298G",
        "meta_epoch": "2025-12-22T14:00:01.999872",
        "meta_mean_motion": 15.8877952,
        "meta_eccentricity": 0.00041192,
        "meta_inclination": 69.9974,
        "meta_ra_of_asc_node": 222.07,
        "meta_arg_of_pericenter": 272.5084,
        "meta_mean_anomaly": 296.9125,
        "meta_ephemeris_type": 0,
        "meta_classification_type": "U",
        "meta_norad_cat_id": 67081,
        "meta_element_set_no": 999,
        "meta_rev_at_epoch": 256,
        "meta_bstar": 0.00092196527,
        "meta_mean_motion_dot": 0.00268162,
        "meta_mean_motion_ddot": 0,
        "tle_line1": "1 67081U 25298G   25356.58335648  .00268162  00000+0  92197-3 0  9996",
        "tle_line2": "2 67081  69.9974 222.0700 0004119 272.5084 296.9125 15.88779520  2563"
      },
      "geometry": {
        "type": "Point",
        "coordinates": [
          -147.04249396281793,
          -20.804039003877136
        ]
      }
    }
  ]
}